GLOBALSTAR M084 [+]     
1 38040U 11080A   24090.34826728 -.00000083  00000+0  11533-3 0  9997
2 38040  52.0022 319.6823 0000902 103.1428  68.0081 12.62272777566610
GLOBALSTAR M080 [+]     
1 38041U 11080B   24090.40144388 -.00000074  00000+0  16745-3 0  9990
2 38041  52.0074 320.9729 0001128  99.9373  71.9751 12.62270587566748
GLOBALSTAR M082 [+]     
1 38042U 11080C   24090.25615905 -.00000086  00000+0  98055-4 0  9990
2 38042  52.0065 276.8138 0000329  55.7113 115.7003 12.62267705567438
GLOBALSTAR M092 [+]     
1 38043U 11080D   24090.54633914 -.00000082  00000+0  12317-3 0  9995
2 38043  52.0115   6.2812 0000525 100.3005  70.5625 12.62277383565927
GLOBALSTAR M090 [+]     
1 38044U 11080E   24090.28214679 -.00000089  00000+0  82512-4 0  9992
2 38044  51.9875 271.1134 0000588  81.8008  88.8994 12.62267847567550
GLOBALSTAR M086 [+]     
1 38045U 11080F   24090.43110413 -.00000078  00000+0  14461-3 0  9996
2 38045  51.9885 271.1770 0001634  74.4345 292.9376 12.62269019567525
GLOBALSTAR M097 [+]     
1 39072U 13005A   24090.53520624 -.00000076  00000+0  15474-3 0  9999
2 39072  52.0038 184.9559 0000555  85.0928 275.0002 12.62261963514788
GLOBALSTAR M093 [+]     
1 39073U 13005B   24090.50861998 -.00000074  00000+0  16693-3 0  9991
2 39073  51.9803 179.0491 0000525  75.2600 284.8325 12.62262675514734
